{"type": "FeatureCollection", "features": [{"type": "Feature", "properties": {"norad_id": 2807, "name": "OPS 7218 (TRANSIT 16)", "group": "nnss", "lat": 48.07351380397689, "lon": -5.455216335850477, "alt_km": 1062.2873917929437, "timestamp": "2025-12-07T18:50:16.984193+00:00", "meta": {"OBJECT_NAME": "OPS 7218 (TRANSIT 16)", "OBJECT_ID": "1967-048A", "EPOCH": "2025-12-07T07:58:55.578144", "MEAN_MOTION": 13.50720774, "ECCENTRICITY": 0.00217152, "INCLINATION": 89.6733, "RA_OF_ASC_NODE": 354.1957, "ARG_OF_PERICENTER": 128.619, "MEAN_ANOMALY": 241.5771, "EPHEMERIS_TYPE": 0, "CLASSIFICATION_TYPE": "U", "NORAD_CAT_ID": 2807, "ELEMENT_SET_NO": 999, "REV_AT_EPOCH": 88203, "BSTAR": 0.00024425931, "MEAN_MOTION_DOT": 1.68e-06, "MEAN_MOTION_DDOT": 0}, "tle": {"line1": "1 02807U 67048A   25341.33258771  .00000168  00000+0  24426-3 0  9998", "line2": "2 02807  89.6733 354.1957 0021715 128.6190 241.5771 13.50720774882036"}}, "geometry": {"type": "Point", "coordinates": [-5.455216335850477, 48.07351380397689]}}, {"type": "Feature", "properties": {"norad_id": 2965, "name": "OPS 4947 (TRANSIT 17)", "group": "nnss", "lat": 64.21280445603759, "lon": 26.366964771315264, "alt_km": 1087.4009645510623, "timestamp": "2025-12-07T18:50:16.984214+00:00", "meta": {"OBJECT_NAME": "OPS 4947 (TRANSIT 17)", "OBJECT_ID": "1967-092A", "EPOCH": "2025-12-07T00:51:26.304768", "MEAN_MOTION": 13.53451478, "ECCENTRICITY": 0.00458798, "INCLINATION": 89.2501, "RA_OF_ASC_NODE": 24.8706, "ARG_OF_PERICENTER": 251.61, "MEAN_ANOMALY": 124.3776, "EPHEMERIS_TYPE": 0, "CLASSIFICATION_TYPE": "U", "NORAD_CAT_ID": 2965, "ELEMENT_SET_NO": 999, "REV_AT_EPOCH": 87020, "BSTAR": 0.00027866329, "MEAN_MOTION_DOT": 1.99e-06, "MEAN_MOTION_DDOT": 0}, "tle": {"line1": "1 02965U 67092A   25341.03572112  .00000199  00000+0  27866-3 0  9992", "line2": "2 02965  89.2501  24.8706 0045879 251.6100 124.3776 13.53451478870202"}}, "geometry": {"type": "Point", "coordinates": [26.366964771315264, 64.21280445603759]}}, {"type": "Feature", "properties": {"norad_id": 3133, "name": "OPS 7034 (TRANSIT 18)", "group": "nnss", "lat": -67.84895520998134, "lon": 93.5575327153773, "alt_km": 1049.8234522750645, "timestamp": "2025-12-07T18:50:16.984228+00:00", "meta": {"OBJECT_NAME": "OPS 7034 (TRANSIT 18)", "OBJECT_ID": "1968-012A", "EPOCH": "2025-12-07T06:01:22.867968", "MEAN_MOTION": 13.51563867, "ECCENTRICITY": 0.00733268, "INCLINATION": 90.0274, "RA_OF_ASC_NODE": 273.6234, "ARG_OF_PERICENTER": 185.0943, "MEAN_ANOMALY": 345.4495, "EPHEMERIS_TYPE": 0, "CLASSIFICATION_TYPE": "U", "NORAD_CAT_ID": 3133, "ELEMENT_SET_NO": 999, "REV_AT_EPOCH": 56844, "BSTAR": 0.00028522424, "MEAN_MOTION_DOT": 1.98e-06, "MEAN_MOTION_DDOT": 0}, "tle": {"line1": "1 03133U 68012A   25341.25095912  .00000198  00000+0  28522-3 0  9994", "line2": "2 03133  90.0274 273.6234 0073326 185.0943 345.4495 13.51563867568448"}}, "geometry": {"type": "Point", "coordinates": [93.5575327153773, -67.84895520998134]}}, {"type": "Feature", "properties": {"norad_id": 4507, "name": "NNSS 19 (TRANSIT 19)", "group": "nnss", "lat": -41.120556824048826, "lon": 54.525308011184656, "alt_km": 1064.8402221253791, "timestamp": "2025-12-07T18:50:16.984240+00:00", "meta": {"OBJECT_NAME": "NNSS 19 (TRANSIT 19)", "OBJECT_ID": "1970-067A", "EPOCH": "2025-12-07T03:30:49.065408", "MEAN_MOTION": 13.51312971, "ECCENTRICITY": 0.01709112, "INCLINATION": 90.0058, "RA_OF_ASC_NODE": 234.53, "ARG_OF_PERICENTER": 309.7142, "MEAN_ANOMALY": 48.9049, "EPHEMERIS_TYPE": 0, "CLASSIFICATION_TYPE": "U", "NORAD_CAT_ID": 4507, "ELEMENT_SET_NO": 999, "REV_AT_EPOCH": 72146, "BSTAR": 0.0003397953, "MEAN_MOTION_DOT": 2.49e-06, "MEAN_MOTION_DDOT": 0}, "tle": {"line1": "1 04507U 70067A   25341.14640122  .00000249  00000+0  33980-3 0  9991", "line2": "2 04507  90.0058 234.5300 0170911 309.7142  48.9049 13.51312971721469"}}, "geometry": {"type": "Point", "coordinates": [54.525308011184656, -41.120556824048826]}}, {"type": "Feature", "properties": {"norad_id": 6909, "name": "NNSS 20 (TRANSIT 20)", "group": "nnss", "lat": -63.497865151296324, "lon": -105.16045766581917, "alt_km": 1107.2563790195609, "timestamp": "2025-12-07T18:50:16.984267+00:00", "meta": {"OBJECT_NAME": "NNSS 20 (TRANSIT 20)", "OBJECT_ID": "1973-081A", "EPOCH": "2025-12-07T03:23:34.164960", "MEAN_MOTION": 13.71430388, "ECCENTRICITY": 0.01565943, "INCLINATION": 89.8561, "RA_OF_ASC_NODE": 255.138, "ARG_OF_PERICENTER": 94.8874, "MEAN_ANOMALY": 267.0188, "EPHEMERIS_TYPE": 0, "CLASSIFICATION_TYPE": "U", "NORAD_CAT_ID": 6909, "ELEMENT_SET_NO": 999, "REV_AT_EPOCH": 80284, "BSTAR": 0.00035654827, "MEAN_MOTION_DOT": 3.62e-06, "MEAN_MOTION_DDOT": 0}, "tle": {"line1": "1 06909U 73081A   25341.14136765  .00000362  00000+0  35655-3 0  9998", "line2": "2 06909  89.8561 255.1380 0156594  94.8874 267.0188 13.71430388802849"}}, "geometry": {"type": "Point", "coordinates": [-105.16045766581917, -63.497865151296324]}}, {"type": "Feature", "properties": {"norad_id": 10457, "name": "TRANSAT", "group": "nnss", "lat": -89.42563703944094, "lon": 40.97615146635582, "alt_km": 1076.1641346003198, "timestamp": "2025-12-07T18:50:16.984278+00:00", "meta": {"OBJECT_NAME": "TRANSAT", "OBJECT_ID": "1977-106A", "EPOCH": "2025-12-07T06:52:55.956864", "MEAN_MOTION": 13.4894237, "ECCENTRICITY": 0.00248901, "INCLINATION": 89.6482, "RA_OF_ASC_NODE": 78.7901, "ARG_OF_PERICENTER": 205.513, "MEAN_ANOMALY": 166.9566, "EPHEMERIS_TYPE": 0, "CLASSIFICATION_TYPE": "U", "NORAD_CAT_ID": 10457, "ELEMENT_SET_NO": 999, "REV_AT_EPOCH": 36670, "BSTAR": 0.00022260376, "MEAN_MOTION_DOT": 1.5e-06, "MEAN_MOTION_DDOT": 0}, "tle": {"line1": "1 10457U 77106A   25341.28675876  .00000150  00000+0  22260-3 0  9992", "line2": "2 10457  89.6482  78.7901 0024890 205.5130 166.9566 13.48942370366709"}}, "geometry": {"type": "Point", "coordinates": [40.97615146635582, -89.42563703944094]}}, {"type": "Feature", "properties": {"norad_id": 12458, "name": "NOVA 1", "group": "nnss", "lat": -88.97021163824623, "lon": -80.30030223221283, "alt_km": 1190.2768206673072, "timestamp": "2025-12-07T18:50:16.984289+00:00", "meta": {"OBJECT_NAME": "NOVA 1", "OBJECT_ID": "1981-044A", "EPOCH": "2025-12-07T02:01:30.730944", "MEAN_MOTION": 13.23277692, "ECCENTRICITY": 0.00157069, "INCLINATION": 89.8524, "RA_OF_ASC_NODE": 91.4651, "ARG_OF_PERICENTER": 117.9107, "MEAN_ANOMALY": 55.7085, "EPHEMERIS_TYPE": 0, "CLASSIFICATION_TYPE": "U", "NORAD_CAT_ID": 12458, "ELEMENT_SET_NO": 999, "REV_AT_EPOCH": 15111, "BSTAR": 0.00025729943, "MEAN_MOTION_DOT": 1.18e-06, "MEAN_MOTION_DDOT": 0}, "tle": {"line1": "1 12458U 81044A   25341.08438346  .00000118  00000+0  25730-3 0  9997", "line2": "2 12458  89.8524  91.4651 0015706 117.9107  55.7085 13.23277692151110"}}, "geometry": {"type": "Point", "coordinates": [-80.30030223221283, -88.97021163824623]}}, {"type": "Feature", "properties": {"norad_id": 15362, "name": "NOVA 3", "group": "nnss", "lat": 34.04247458806886, "lon": -99.44100988213884, "alt_km": 1192.8615783777377, "timestamp": "2025-12-07T18:50:16.984299+00:00", "meta": {"OBJECT_NAME": "NOVA 3", "OBJECT_ID": "1984-110A", "EPOCH": "2025-12-07T05:32:17.973312", "MEAN_MOTION": 13.23043506, "ECCENTRICITY": 0.00309285, "INCLINATION": 90.1223, "RA_OF_ASC_NODE": 80.4698, "ARG_OF_PERICENTER": 347.4743, "MEAN_ANOMALY": 40.3832, "EPHEMERIS_TYPE": 0, "CLASSIFICATION_TYPE": "U", "NORAD_CAT_ID": 15362, "ELEMENT_SET_NO": 999, "REV_AT_EPOCH": 98626, "BSTAR": 0.00027036064, "MEAN_MOTION_DOT": 1.22e-06, "MEAN_MOTION_DDOT": 0}, "tle": {"line1": "1 15362U 84110A   25341.23076358  .00000122  00000+0  27036-3 0  9995", "line2": "2 15362  90.1223  80.4698 0030928 347.4743  40.3832 13.23043506986263"}}, "geometry": {"type": "Point", "coordinates": [-99.44100988213884, 34.04247458806886]}}, {"type": "Feature", "properties": {"norad_id": 15935, "name": "OSCAR 30", "group": "nnss", "lat": -7.634521060111947, "lon": 99.7881611639782, "alt_km": 1159.19721520635, "timestamp": "2025-12-07T18:50:16.984310+00:00", "meta": {"OBJECT_NAME": "OSCAR 30", "OBJECT_ID": "1985-066A", "EPOCH": "2025-12-07T06:21:13.040064", "MEAN_MOTION": 13.36076856, "ECCENTRICITY": 0.01693934, "INCLINATION": 90.1649, "RA_OF_ASC_NODE": 99.7576, "ARG_OF_PERICENTER": 99.1847, "MEAN_ANOMALY": 274.6192, "EPHEMERIS_TYPE": 0, "CLASSIFICATION_TYPE": "U", "NORAD_CAT_ID": 15935, "ELEMENT_SET_NO": 999, "REV_AT_EPOCH": 96380, "BSTAR": 0.00023964509, "MEAN_MOTION_DOT": 1.44e-06, "MEAN_MOTION_DDOT": 0}, "tle": {"line1": "1 15935U 85066A   25341.26473426  .00000144  00000+0  23965-3 0  9993", "line2": "2 15935  90.1649  99.7576 0169393  99.1847 274.6192 13.36076856963808"}}, "geometry": {"type": "Point", "coordinates": [99.7881611639782, -7.634521060111947]}}, {"type": "Feature", "properties": {"norad_id": 15936, "name": "OSCAR 24", "group": "nnss", "lat": 71.15236763229197, "lon": 91.69367457592824, "alt_km": 1009.7697317720249, "timestamp": "2025-12-07T18:50:16.984320+00:00", "meta": {"OBJECT_NAME": "OSCAR 24", "OBJECT_ID": "1985-066B", "EPOCH": "2025-12-07T06:02:19.334688", "MEAN_MOTION": 13.35934518, "ECCENTRICITY": 0.01704065, "INCLINATION": 90.1788, "RA_OF_ASC_NODE": 92.2084, "ARG_OF_PERICENTER": 105.6595, "MEAN_ANOMALY": 283.2203, "EPHEMERIS_TYPE": 0, "CLASSIFICATION_TYPE": "U", "NORAD_CAT_ID": 15936, "ELEMENT_SET_NO": 999, "REV_AT_EPOCH": 96570, "BSTAR": 0.00022570747, "MEAN_MOTION_DOT": 1.36e-06, "MEAN_MOTION_DDOT": 0}, "tle": {"line1": "1 15936U 85066B   25341.25161267  .00000136  00000+0  22571-3 0  9993", "line2": "2 15936  90.1788  92.2084 0170406 105.6595 283.2203 13.35934518965702"}}, "geometry": {"type": "Point", "coordinates": [91.69367457592824, 71.15236763229197]}}]}